[{"OBJECT_NAME":"STARLINK-31354","OBJECT_ID":"2024-027M","EPOCH":"2026-03-09T22:28:26.680224","MEAN_MOTION":15.30185838,"ECCENTRICITY":0.00010263,"INCLINATION":53.1608,"RA_OF_ASC_NODE":308.6501,"ARG_OF_PERICENTER":103.1527,"MEAN_ANOMALY":256.9589,"EPHEMERIS_TYPE":0,"CLASSIFICATION_TYPE":"U","NORAD_CAT_ID":58942,"ELEMENT_SET_NO":999,"REV_AT_EPOCH":11736,"BSTAR":0.00013102381,"MEAN_MOTION_DOT":3.522e-5,"MEAN_MOTION_DDOT":0},{"OBJECT_NAME":"OBJECT D","OBJECT_ID":"2024-174D","EPOCH":"2026-03-10T00:15:10.483200","MEAN_MOTION":15.28039787,"ECCENTRICITY":0.00110644,"INCLINATION":97.4441,"RA_OF_ASC_NODE":80.4677,"ARG_OF_PERICENTER":212.9968,"MEAN_ANOMALY":147.0582,"EPHEMERIS_TYPE":0,"CLASSIFICATION_TYPE":"U","NORAD_CAT_ID":61241,"ELEMENT_SET_NO":999,"REV_AT_EPOCH":8076,"BSTAR":0.00036340099,"MEAN_MOTION_DOT":9.884e-5,"MEAN_MOTION_DDOT":0}]
